0 COSMOS 252 DEB
1 03784U 68097AW  13282.02412851  .00003212  00000-0  22194-2 0  4028
2 03784 062.2465 211.0570 0701952 065.2579 016.1849 13.19874218474304
0 COSMOS 252 DEB
1 03784U 68097AW  13284.15035620  .00003478  00000-0  23948-2 0  4032
2 03784 062.2466 205.5719 0702189 065.7365 039.1072 13.19885192474585
0 COSMOS 252 DEB
1 03784U 68097AW  13285.80335721  .00002915  00000-0  20158-2 0  4046
2 03784 062.2468 201.3074 0702368 066.1114 333.5131 13.19894195474806
0 COSMOS 252 DEB
1 03784U 68097AW  13287.18831609  .00003409  00000-0  23452-2 0  4055
2 03784 062.2474 197.7350 0702473 066.4205 074.3384 13.19900418474984
0 COSMOS 252 DEB
1 03784U 68097AW  13288.31438779  .00004177  00000-0  28568-2 0  4069
2 03784 062.2474 194.8300 0702569 066.6724 025.0508 13.19910588475139
0 COSMOS 252 DEB
1 03784U 68097AW  13289.82333870  .00003694  00000-0  25327-2 0  4076
2 03784 062.2473 190.9373 0702619 067.0083 355.1409 13.19923152475334
0 COSMOS 252 DEB
1 03784U 68097AW  13290.79667840  .00004092  00000-0  27334-2 0  4096
2 03784 062.2482 188.4277 0702345 067.2456 300.1666 13.19925523475464
0 COSMOS 252 DEB
1 03784U 68097AW  13291.04454368  .00003463  00000-0  23774-2 0  4101
2 03784 062.2470 187.7870 0702718 067.2832 037.9913 13.19931909475492
0 COSMOS 252 DEB
1 03784U 68097AW  13292.17493698  .00003316  00000-0  22778-2 0  4116
2 03784 062.2468 184.8706 0702828 067.5421 009.3569 13.19938306475649
0 COSMOS 252 DEB
1 03784U 68097AW  13293.83979811  .00003405  00000-0  23352-2 0  4125
2 03784 062.2459 180.5746 0702999 067.9161 000.4539 13.19950018475867
0 COSMOS 252 DEB
1 03784U 68097AW  13294.98309795  .00003576  00000-0  24501-2 0  4137
2 03784 062.2458 177.6251 0702862 068.1734 033.2311 13.19955850476011
